{
  "type": "FeatureCollection",
  "features": [
    {
      "type": "Feature",
      "properties": {
        "norad_id": 66621,
        "name": "STARLINK-35847",
        "group": "last-30-days",
        "lat": 47.07466726603262,
        "lon": -100.14001314092882,
        "alt_km": 360.6183137599719,
        "timestamp": "2025-12-08T19:31:47.637333+00:00",
        "meta_object_name": "STARLINK-35847",
        "meta_object_id": "2025-271E",
        "meta_epoch": "2025-12-08T06:00:02.999808",
        "meta_mean_motion": 15.69407911,
        "meta_eccentricity": 9.58e-05,
        "meta_inclination": 53.1593,
        "meta_ra_of_asc_node": 208.9157,
        "meta_arg_of_pericenter": 93.6879,
        "meta_mean_anomaly": 28.3189,
        "meta_ephemeris_type": 0,
        "meta_classification_type": "U",
        "meta_norad_cat_id": 66621,
        "meta_element_set_no": 999,
        "meta_rev_at_epoch": 352,
        "meta_bstar": -0.018604749,
        "meta_mean_motion_dot": -0.01966988,
        "meta_mean_motion_ddot": 0,
        "tle_line1": "1 66621U 25271E   25342.25003472 -.01966988  00000+0 -18605-1 0  9996",
        "tle_line2": "2 66621  53.1593 208.9157 0000958  93.6879  28.3189 15.69407911  3529"
      },
      "geometry": {
        "type": "Point",
        "coordinates": [
          -100.14001314092882,
          47.07466726603262
        ]
      }
    },
    {
      "type": "Feature",
      "properties": {
        "norad_id": 66622,
        "name": "STARLINK-35950",
        "group": "last-30-days",
        "lat": 15.017812214517088,
        "lon": -142.15354751147956,
        "alt_km": 366.0004623353152,
        "timestamp": "2025-12-08T19:31:47.637344+00:00",
        "meta_object_name": "STARLINK-35950",
        "meta_object_id": "2025-271F",
        "meta_epoch": "2025-12-08T06:00:02.999808",
        "meta_mean_motion": 15.69409847,
        "meta_eccentricity": 9.022e-05,
        "meta_inclination": 53.1594,
        "meta_ra_of_asc_node": 209.0159,
        "meta_arg_of_pericenter": 85.3766,
        "meta_mean_anomaly": 349.3553,
        "meta_ephemeris_type": 0,
        "meta_classification_type": "U",
        "meta_norad_cat_id": 66622,
        "meta_element_set_no": 999,
        "meta_rev_at_epoch": 352,
        "meta_bstar": -0.018645629,
        "meta_mean_motion_dot": -0.019709,
        "meta_mean_motion_ddot": 0,
        "tle_line1": "1 66622U 25271F   25342.25003472 -.01970900  00000+0 -18646-1 0  9991",
        "tle_line2": "2 66622  53.1594 209.0159 0000902  85.3766 349.3553 15.69409847  3528"
      },
      "geometry": {
        "type": "Point",
        "coordinates": [
          -142.15354751147956,
          15.017812214517088
        ]
      }
    },
    {
      "type": "Feature",
      "properties": {
        "norad_id": 66623,
        "name": "STARLINK-35920",
        "group": "last-30-days",
        "lat": 18.008855620771307,
        "lon": -139.6589989257207,
        "alt_km": 365.4765585550913,
        "timestamp": "2025-12-08T19:31:47.637353+00:00",
        "meta_object_name": "STARLINK-35920",
        "meta_object_id": "2025-271G",
        "meta_epoch": "2025-12-08T06:00:02.999808",
        "meta_mean_motion": 15.69408752,
        "meta_eccentricity": 0.00010328,
        "meta_inclination": 53.159,
        "meta_ra_of_asc_node": 209.007,
        "meta_arg_of_pericenter": 76.3573,
        "meta_mean_anomaly": 2.209,
        "meta_ephemeris_type": 0,
        "meta_classification_type": "U",
        "meta_norad_cat_id": 66623,
        "meta_element_set_no": 999,
        "meta_rev_at_epoch": 352,
        "meta_bstar": -0.018643187,
        "meta_mean_motion_dot": -0.01970691,
        "meta_mean_motion_ddot": 0,
        "tle_line1": "1 66623U 25271G   25342.25003472 -.01970691  00000+0 -18643-1 0  9996",
        "tle_line2": "2 66623  53.1590 209.0070 0001032  76.3573   2.2090 15.69408752  3523"
      },
      "geometry": {
        "type": "Point",
        "coordinates": [
          -139.6589989257207,
          18.008855620771307
        ]
      }
    },
    {
      "type": "Feature",
      "properties": {
        "norad_id": 66624,
        "name": "STARLINK-35927",
        "group": "last-30-days",
        "lat": 16.51891594956504,
        "lon": -140.91446909972296,
        "alt_km": 365.71796488125983,
        "timestamp": "2025-12-08T19:31:47.637362+00:00",
        "meta_object_name": "STARLINK-35927",
        "meta_object_id": "2025-271H",
        "meta_epoch": "2025-12-08T06:00:02.999808",
        "meta_mean_motion": 15.69407274,
        "meta_eccentricity": 8.193e-05,
        "meta_inclination": 53.1592,
        "meta_ra_of_asc_node": 209.0114,
        "meta_arg_of_pericenter": 78.4499,
        "meta_mean_anomaly": 358.1999,
        "meta_ephemeris_type": 0,
        "meta_classification_type": "U",
        "meta_norad_cat_id": 66624,
        "meta_element_set_no": 999,
        "meta_rev_at_epoch": 352,
        "meta_bstar": -0.018617019,
        "meta_mean_motion_dot": -0.01967985,
        "meta_mean_motion_ddot": 0,
        "tle_line1": "1 66624U 25271H   25342.25003472 -.01967985  00000+0 -18617-1 0  9990",
        "tle_line2": "2 66624  53.1592 209.0114 0000819  78.4499 358.1999 15.69407274  3526"
      },
      "geometry": {
        "type": "Point",
        "coordinates": [
          -140.91446909972296,
          16.51891594956504
        ]
      }
    },
    {
      "type": "Feature",
      "properties": {
        "norad_id": 66625,
        "name": "STARLINK-35929",
        "group": "last-30-days",
        "lat": 19.49310232924482,
        "lon": -138.37972590978282,
        "alt_km": 365.3394249485109,
        "timestamp": "2025-12-08T19:31:47.637371+00:00",
        "meta_object_name": "STARLINK-35929",
        "meta_object_id": "2025-271J",
        "meta_epoch": "2025-12-08T06:00:02.999808",
        "meta_mean_motion": 15.69411149,
        "meta_eccentricity": 9.381e-05,
        "meta_inclination": 53.1592,
        "meta_ra_of_asc_node": 209.0029,
        "meta_arg_of_pericenter": 95.8423,
        "meta_mean_anomaly": 344.6394,
        "meta_ephemeris_type": 0,
        "meta_classification_type": "U",
        "meta_norad_cat_id": 66625,
        "meta_element_set_no": 999,
        "meta_rev_at_epoch": 352,
        "meta_bstar": -0.018669365,
        "meta_mean_motion_dot": -0.01973235,
        "meta_mean_motion_ddot": 0,
        "tle_line1": "1 66625U 25271J   25342.25003472 -.01973235  00000+0 -18669-1 0  9993",
        "tle_line2": "2 66625  53.1592 209.0029 0000938  95.8423 344.6394 15.69411149  3529"
      },
      "geometry": {
        "type": "Point",
        "coordinates": [
          -138.37972590978282,
          19.49310232924482
        ]
      }
    },
    {
      "type": "Feature",
      "properties": {
        "norad_id": 66626,
        "name": "STARLINK-35902",
        "group": "last-30-days",
        "lat": 20.969620904982488,
        "lon": -137.07575201482615,
        "alt_km": 365.0466995712204,
        "timestamp": "2025-12-08T19:31:47.637380+00:00",
        "meta_object_name": "STARLINK-35902",
        "meta_object_id": "2025-271K",
        "meta_epoch": "2025-12-08T06:00:02.999808",
        "meta_mean_motion": 15.6940959,
        "meta_eccentricity": 8.583e-05,
        "meta_inclination": 53.1594,
        "meta_ra_of_asc_node": 208.9985,
        "meta_arg_of_pericenter": 89.096,
        "meta_mean_anomaly": 353.3041,
        "meta_ephemeris_type": 0,
        "meta_classification_type": "U",
        "meta_norad_cat_id": 66626,
        "meta_element_set_no": 999,
        "meta_rev_at_epoch": 352,
        "meta_bstar": -0.018656965,
        "meta_mean_motion_dot": -0.01971906,
        "meta_mean_motion_ddot": 0,
        "tle_line1": "1 66626U 25271K   25342.25003472 -.01971906  00000+0 -18657-1 0  9994",
        "tle_line2": "2 66626  53.1594 208.9985 0000858  89.0960 353.3041 15.69409590  3526"
      },
      "geometry": {
        "type": "Point",
        "coordinates": [
          -137.07575201482615,
          20.969620904982488
        ]
      }
    },
    {
      "type": "Feature",
      "properties": {
        "norad_id": 66627,
        "name": "STARLINK-35904",
        "group": "last-30-days",
        "lat": 22.437352979428063,
        "lon": -135.74399851581103,
        "alt_km": 364.70545706901703,
        "timestamp": "2025-12-08T19:31:47.637391+00:00",
        "meta_object_name": "STARLINK-35904",
        "meta_object_id": "2025-271L",
        "meta_epoch": "2025-12-08T06:00:02.999808",
        "meta_mean_motion": 15.69404798,
        "meta_eccentricity": 8.264e-05,
        "meta_inclination": 53.1596,
        "meta_ra_of_asc_node": 208.9946,
        "meta_arg_of_pericenter": 76.8597,
        "meta_mean_anomaly": 7.4581,
        "meta_ephemeris_type": 0,
        "meta_classification_type": "U",
        "meta_norad_cat_id": 66627,
        "meta_element_set_no": 999,
        "meta_rev_at_epoch": 336,
        "meta_bstar": -0.01857816,
        "meta_mean_motion_dot": -0.01964185,
        "meta_mean_motion_ddot": 0,
        "tle_line1": "1 66627U 25271L   25342.25003472 -.01964185  00000+0 -18578-1 0  9998",
        "tle_line2": "2 66627  53.1596 208.9946 0000826  76.8597   7.4581 15.69404798  3364"
      },
      "geometry": {
        "type": "Point",
        "coordinates": [
          -135.74399851581103,
          22.437352979428063
        ]
      }
    }
  ]
}